{"type":"FeatureCollection","_placeholder_warning":"Councillor names and reservation details come from councillors_2026.csv. Phone numbers and LGD ward codes remain pending.","features":[{"type":"Feature","geometry":{"type":"Polygon","coordinates":[[[86.3040847,23.8226327],[86.3031788,23.8216894],[86.3029082,23.8206722],[86.3029163,23.8191483],[86.3028524,23.8181955],[86.302512,23.817305],[86.3016872,23.8166663],[86.3003082,23.8164061],[86.3003985,23.8154837],[86.3006003,23.813423],[86.3007465,23.8118997],[86.3004779,23.8105015],[86.2999278,23.8101181],[86.3006152,23.8101188],[86.3010184,23.8106185],[86.3013549,23.8109312],[86.3018284,23.8109334],[86.3021693,23.810437],[86.3026464,23.8097546],[86.3031159,23.8105035],[86.3035194,23.810941],[86.3041978,23.8105707],[86.3044445,23.810421],[86.304644,23.8095537],[86.3013267,23.8080362],[86.2963469,23.8060754],[86.2940469,23.8051697],[86.2889788,23.8028934],[86.2910982,23.800617],[86.2920197,23.7988464],[86.288518,23.7960641],[86.2861222,23.7942091],[86.2838067,23.7916558],[86.2832706,23.7917938],[86.2829616,23.7920548],[86.2830752,23.7923738],[86.2833787,23.7932259],[86.2831255,23.7934634],[86.2817644,23.7947397],[86.2818564,23.795621],[86.2815111,23.7956829],[86.2796513,23.7948507],[86.278782,23.7944618],[86.2786967,23.7956324],[86.2786544,23.7962139],[86.2786061,23.7968758],[86.2782327,23.7993168],[86.2780334,23.8006195],[86.2779519,23.8008768],[86.2774715,23.8023948],[86.2779519,23.802943],[86.2783564,23.8034045],[86.280489,23.8058378],[86.2805896,23.8058498],[86.2830969,23.80615],[86.2843512,23.8063002],[86.28447,23.8085967],[86.284476,23.8087137],[86.2819909,23.8088291],[86.2815687,23.8089536],[86.2809469,23.809137],[86.2798722,23.8094539],[86.2806046,23.8099021],[86.2811891,23.8127202],[86.2820401,23.8125878],[86.2852858,23.8120828],[86.2859093,23.8116412],[86.2871526,23.8114565],[86.2876302,23.8124747],[86.2887976,23.8135595],[86.2867254,23.8138674],[86.285888,23.8146725],[86.2854765,23.8150681],[86.285277,23.8152391],[86.283921,23.8164014],[86.284772,23.8176683],[86.2847654,23.8178623],[86.2846898,23.8200808],[86.284952,23.8226219],[86.2857802,23.8226257],[86.2865405,23.8224388],[86.2879903,23.822382],[86.2886883,23.8219385],[86.2946392,23.8181582],[86.2989093,23.8224219],[86.2992389,23.822751],[86.3007529,23.8235833],[86.302269,23.8240347],[86.3042744,23.8233453],[86.3041844,23.8230073],[86.3040847,23.8226327]]]},"properties":{"ward_no":1,"ward_name":"Ward 1","councillor_name":"मधुमाला","councillor_name_en":"Madhumala","reservation_category":"अनारक्षित","reservation_category_en":"Unreserved/General","gender_category":"महिला(Woman)","councillor_phone":"","lgd_ward_code":"Data pending","source_objectid":3461,"source_gisglobalid":"snBdoPno-Bnmn-P6Bs-Q5K6-QR4R5m6lnRPK"}},{"type":"Feature","geometry":{"type":"Polygon","coordinates":[[[86.2838067,23.7916558],[86.2861222,23.7942091],[86.288518,23.7960641],[86.2920197,23.7988464],[86.2910982,23.800617],[86.2889788,23.8028934],[86.2940469,23.8051697],[86.2963469,23.8060754],[86.2994837,23.8038208],[86.3011424,23.8012072],[86.302156,23.7988464],[86.3023403,23.7958111],[86.3024483,23.794729],[86.3027272,23.7924319],[86.3036338,23.7909004],[86.3043312,23.7875822],[86.3046935,23.7865322],[86.3038478,23.7866863],[86.3022173,23.7856591],[86.3000029,23.7852606],[86.3005773,23.7834385],[86.3009194,23.783582],[86.3015198,23.7838339],[86.3023665,23.7844897],[86.3030738,23.7847102],[86.3032715,23.7830595],[86.3034433,23.7823452],[86.3034507,23.7823146],[86.3040443,23.7798466],[86.30378,23.7794304],[86.3034354,23.7788877],[86.3020714,23.7778384],[86.2999524,23.7766552],[86.296823,23.7772229],[86.2957449,23.7774185],[86.2980956,23.7794285],[86.2987648,23.7804665],[86.2990197,23.7809487],[86.2982156,23.7819807],[86.2970327,23.7838167],[86.2967478,23.7854664],[86.2971212,23.7876335],[86.2958631,23.7905452],[86.2957616,23.7918486],[86.2941148,23.7906676],[86.2934073,23.7904905],[86.2914261,23.7900033],[86.2900117,23.7895187],[86.2887376,23.7892955],[86.287656,23.7884212],[86.2867648,23.787287],[86.2861239,23.786939],[86.2855353,23.7875421],[86.2846334,23.7883638],[86.2847685,23.7895814],[86.2843415,23.7899271],[86.2834395,23.7907488],[86.2831044,23.791573],[86.28296,23.7920505],[86.2829616,23.7920548],[86.2832706,23.7917938],[86.2838067,23.7916558]]]},"properties":{"ward_no":2,"ward_name":"Ward 2","councillor_name":"मो0 शहाबुद्दीन","councillor_name_en":"","reservation_category":"अत्यंत पिछड़ा वर्ग-I","reservation_category_en":"Extremely Backward Class-I","gender_category":"अन्य(Other)","councillor_phone":"","lgd_ward_code":"Data pending","source_objectid":3463,"source_gisglobalid":"ln4Rs665-Q45o-PnQQ-asnn-QR5BQRKdQcBd"}},{"type":"Feature","geometry":{"type":"Polygon","coordinates":[[[86.3087907,23.8028091],[86.307132,23.801713],[86.302156,23.7988464],[86.3011424,23.8012072],[86.2994837,23.8038208],[86.2963469,23.8060754],[86.3013267,23.8080362],[86.304644,23.8095537],[86.3076849,23.8055913],[86.3087907,23.8028091]]]},"properties":{"ward_no":3,"ward_name":"Ward 3","councillor_name":"रागिनी बिनायक गुप्ता","councillor_name_en":"","reservation_category":"पिछड़ा वर्ग-II","reservation_category_en":"Backward Class-II","gender_category":"महिला(Woman)","councillor_phone":"","lgd_ward_code":"Data pending","source_objectid":3464,"source_gisglobalid":"nnBRacnl-4dKs-PnlK-QlBR-ddlaosK5oa5c"}},{"type":"Feature","geometry":{"type":"Polygon","coordinates":[[[86.344612,23.8042131],[86.3462559,23.8026288],[86.3467962,23.802108],[86.347256,23.8016649],[86.3473088,23.8014601],[86.346203,23.7973288],[86.3451894,23.794968],[86.3403055,23.7958954],[86.3371725,23.7966543],[86.3341316,23.7978347],[86.3323807,23.7986778],[86.3295241,23.799015],[86.3278516,23.7987512],[86.3268518,23.7985935],[86.3241795,23.7958111],[86.3222444,23.7936189],[86.3184663,23.7943777],[86.3145039,23.7952209],[86.3122924,23.7958954],[86.3117395,23.7969072],[86.3087907,23.8028091],[86.3076849,23.8055913],[86.304644,23.8095537],[86.3044445,23.810421],[86.3052157,23.8099529],[86.3061614,23.8102061],[86.3081259,23.8096548],[86.3091481,23.808228],[86.3110459,23.8074897],[86.3129427,23.8069381],[86.3154444,23.8071359],[86.3162083,23.8070472],[86.3195729,23.8066563],[86.3220771,23.8063562],[86.3223121,23.806874],[86.3228128,23.8079775],[86.3230743,23.8097212],[86.3234083,23.8105317],[86.327334,23.810051],[86.3297072,23.8089411],[86.3322803,23.8083921],[86.3385777,23.8070501],[86.344612,23.8042131]]]},"properties":{"ward_no":4,"ward_name":"Ward 4","councillor_name":"राममुर्ति सिंह","councillor_name_en":"","reservation_category":"अनारक्षित","reservation_category_en":"Unreserved/General","gender_category":"अन्य(Other)","councillor_phone":"","lgd_ward_code":"Data pending","source_objectid":3462,"source_gisglobalid":"no5cBB4B-laa5-Po4m-RP6l-4nm6aa46Qm5P"}},{"type":"Feature","geometry":{"type":"Polygon","coordinates":[[[86.3043312,23.7875822],[86.3036338,23.7909004],[86.3027272,23.7924319],[86.3024483,23.794729],[86.3023403,23.7958111],[86.302156,23.7988464],[86.307132,23.801713],[86.3087907,23.8028091],[86.3117395,23.7969072],[86.3122924,23.7958954],[86.3145039,23.7952209],[86.3184663,23.7943777],[86.3222444,23.7936189],[86.3204014,23.789403],[86.3180977,23.7859459],[86.3167155,23.7831633],[86.3141353,23.7792],[86.3110944,23.7779351],[86.3081544,23.7795618],[86.308472,23.7804908],[86.3087799,23.7821434],[86.3089009,23.7830702],[86.3090843,23.7844759],[86.3092871,23.7860308],[86.3072287,23.7860702],[86.3062104,23.7862558],[86.3046935,23.7865322],[86.3043312,23.7875822]]]},"properties":{"ward_no":5,"ward_name":"Ward 5","councillor_name":"निरूपमा देवी","councillor_name_en":"","reservation_category":"अनुसूचित जाति","reservation_category_en":"Scheduled Caste","gender_category":"अन्य(Other)","councillor_phone":"","lgd_ward_code":"Data pending","source_objectid":3465,"source_gisglobalid":"sKdsKPdc-nmRQ-P6so-Ra64-PBPoK4Bn545o"}},{"type":"Feature","geometry":{"type":"Polygon","coordinates":[[[86.3367457,23.7725531],[86.3361125,23.7725504],[86.3360605,23.7724045],[86.3359051,23.771821],[86.3357311,23.771056],[86.3355954,23.7704599],[86.335446,23.7699342],[86.3353881,23.7697305],[86.3348116,23.768951],[86.3347728,23.7689241],[86.3323402,23.7672405],[86.332161,23.7659046],[86.332086,23.7653454],[86.3309537,23.7647271],[86.3296655,23.7640237],[86.3293118,23.7638589],[86.3278758,23.7631903],[86.3254498,23.7629369],[86.3242194,23.7635382],[86.3225933,23.7643328],[86.3193741,23.7644158],[86.3155126,23.7662442],[86.3120805,23.766666],[86.3121011,23.769175],[86.312109,23.770135],[86.3121313,23.7728583],[86.3119887,23.774096],[86.30856,23.7738379],[86.3073871,23.7755768],[86.3074856,23.7774268],[86.3076406,23.7780589],[86.3081544,23.7795618],[86.3110944,23.7779351],[86.3141353,23.7792],[86.3167155,23.7831633],[86.3180977,23.7859459],[86.3204014,23.789403],[86.3222444,23.7936189],[86.3241795,23.7958111],[86.3268518,23.7985935],[86.3278516,23.7987512],[86.3290634,23.7964856],[86.3290634,23.7926914],[86.3298006,23.7920169],[86.3320121,23.7926914],[86.332565,23.7915953],[86.3326572,23.7860302],[86.3352373,23.7835849],[86.3379097,23.7814768],[86.3397526,23.7797903],[86.3407663,23.7763329],[86.3406642,23.7744361],[86.3406487,23.7729583],[86.3400669,23.7726696],[86.3390695,23.7721745],[86.338384,23.7720745],[86.3378031,23.7721691],[86.3371757,23.772397],[86.3367457,23.7725531]]]},"properties":{"ward_no":6,"ward_name":"Ward 6","councillor_name":"कल्पना महतो","councillor_name_en":"","reservation_category":"अत्यंत पिछड़ा वर्ग-I","reservation_category_en":"Extremely Backward Class-I","gender_category":"महिला(Woman)","councillor_phone":"","lgd_ward_code":"Data pending","source_objectid":3457,"source_gisglobalid":"dd6n4nsn-5KBa-Pcs6-RRBs-RBPldmsdRosP"}},{"type":"Feature","geometry":{"type":"Polygon","coordinates":[[[86.346203,23.7973288],[86.3473088,23.8014601],[86.347256,23.8016649],[86.3479474,23.8009986],[86.3485755,23.8012667],[86.3494939,23.8011017],[86.3501704,23.8003728],[86.350785,23.7998125],[86.35219,23.8002125],[86.3535931,23.8010064],[86.3536592,23.8010276],[86.3538514,23.8007856],[86.3586431,23.7971601],[86.3569844,23.7943778],[86.3544964,23.7910051],[86.3563394,23.789656],[86.35551,23.7860302],[86.3551414,23.7829946],[86.3545885,23.779453],[86.3542199,23.7775978],[86.3527456,23.774562],[86.351055,23.7740532],[86.3517287,23.7718673],[86.3511545,23.7720315],[86.3505215,23.7719803],[86.3499962,23.7714924],[86.3490999,23.771343],[86.347885,23.7715807],[86.3456165,23.771474],[86.344983,23.7715198],[86.3441355,23.7721476],[86.3430267,23.7722886],[86.3419676,23.7730125],[86.3406487,23.7729583],[86.3406556,23.7736216],[86.3406642,23.7744361],[86.3407663,23.7763329],[86.3397526,23.7797903],[86.3379097,23.7814768],[86.3352373,23.7835849],[86.3326572,23.7860302],[86.332565,23.7915953],[86.3320121,23.7926914],[86.3298006,23.7920169],[86.3290634,23.7926914],[86.3290634,23.7964856],[86.3278516,23.7987512],[86.3295241,23.799015],[86.3323807,23.7986778],[86.3341316,23.7978347],[86.3371725,23.7966543],[86.3403055,23.7958954],[86.3451894,23.794968],[86.346203,23.7973288]]]},"properties":{"ward_no":7,"ward_name":"Ward 7","councillor_name":"अरुण कुमार चौहान","councillor_name_en":"","reservation_category":"अनारक्षित","reservation_category_en":"Unreserved/General","gender_category":"अन्य(Other)","councillor_phone":"","lgd_ward_code":"Data pending","source_objectid":3468,"source_gisglobalid":"s6Qao4l5-nlPK-PQma-sa4c-osQRKQ6c5s4K"}},{"type":"Feature","geometry":{"type":"Polygon","coordinates":[[[86.3536592,23.8010276],[86.354784,23.8013886],[86.3555475,23.8016337],[86.3586062,23.8016465],[86.36075,23.8010925],[86.3625932,23.7994678],[86.3646796,23.7981255],[86.3659085,23.7970048],[86.3673857,23.7951533],[86.3683076,23.7942565],[86.3685763,23.7941995],[86.3682265,23.791511],[86.3692402,23.7892344],[86.3706224,23.7882225],[86.3735711,23.7867891],[86.3782707,23.7853556],[86.3791922,23.7850184],[86.3794687,23.7836692],[86.3799294,23.7811395],[86.379653,23.7799589],[86.3780864,23.7787784],[86.3754141,23.7767545],[86.3748612,23.7764172],[86.3708067,23.7744777],[86.3697931,23.775574],[86.3698852,23.7805492],[86.3687794,23.7807179],[86.3661071,23.7792843],[86.3626055,23.7771762],[86.3591038,23.7758269],[86.3566158,23.7747307],[86.3527456,23.774562],[86.3542199,23.7775978],[86.3545885,23.779453],[86.3551414,23.7829946],[86.35551,23.7860302],[86.3563394,23.789656],[86.3544964,23.7910051],[86.3569844,23.7943778],[86.3586431,23.7971601],[86.3538514,23.8007856],[86.3536592,23.8010276]]]},"properties":{"ward_no":8,"ward_name":"Ward 8","councillor_name":"रामेश्वर तुरी","councillor_name_en":"","reservation_category":"अनुसूचित जाति","reservation_category_en":"Scheduled Caste","gender_category":"अन्य(Other)","councillor_phone":"","lgd_ward_code":"Data pending","source_objectid":3467,"source_gisglobalid":"Pc4Pc6Kn-BmKo-P4s4-RcPK-sdP6ndRlnsm6"}},{"type":"Feature","geometry":{"type":"Polygon","coordinates":[[[86.351055,23.7740532],[86.3527456,23.774562],[86.3566158,23.7747307],[86.3591038,23.7758269],[86.3626055,23.7771762],[86.3661071,23.7792843],[86.3687794,23.7807179],[86.3698852,23.7805492],[86.3697931,23.775574],[86.3708067,23.7744777],[86.3748612,23.7764172],[86.3811273,23.7742247],[86.3809054,23.7712512],[86.3807548,23.7653249],[86.3780441,23.7656005],[86.3742793,23.7661518],[86.3687073,23.7664275],[86.3674432,23.7618631],[86.3635379,23.760076],[86.3616578,23.7595024],[86.3612918,23.7600782],[86.3603953,23.7599774],[86.3593353,23.7609443],[86.3583363,23.7602117],[86.3570738,23.7617171],[86.3569564,23.7618571],[86.3567415,23.7626333],[86.3566309,23.7636527],[86.3568895,23.7647222],[86.3567076,23.7659829],[86.3566164,23.7666151],[86.3566651,23.7674409],[86.3555412,23.7706415],[86.3532729,23.7704863],[86.3525678,23.7712823],[86.3517287,23.7718673],[86.351055,23.7740532]]]},"properties":{"ward_no":9,"ward_name":"Ward 9","councillor_name":"सुनैना पासवान","councillor_name_en":"","reservation_category":"अनुसूचित जाति","reservation_category_en":"Scheduled Caste","gender_category":"महिला(Woman)","councillor_phone":"","lgd_ward_code":"Data pending","source_objectid":3466,"source_gisglobalid":"a46KsmBK-anam-PccK-RB6R-5QdadKlnoQRd"}},{"type":"Feature","geometry":{"type":"Polygon","coordinates":[[[86.3763055,23.725245],[86.3746308,23.7259828],[86.3710704,23.7264646],[86.3707578,23.7282135],[86.3706272,23.7289445],[86.3702408,23.7308289],[86.3704998,23.7330138],[86.3707045,23.7352977],[86.3700132,23.7366506],[86.3699548,23.7367378],[86.3689689,23.7382111],[86.3674597,23.7373691],[86.3657359,23.7370642],[86.3640121,23.7367593],[86.3639717,23.7367378],[86.3632592,23.7363592],[86.3621821,23.7361066],[86.3611049,23.7359036],[86.3605157,23.735107],[86.359545,23.7351527],[86.3592203,23.7353995],[86.3587096,23.7364169],[86.3591845,23.7367378],[86.3600735,23.7373387],[86.3613662,23.7375922],[86.3618488,23.7381401],[86.3618442,23.7390831],[86.3616225,23.740323],[86.3609868,23.7410919],[86.3598774,23.7415161],[86.3592343,23.7420164],[86.358049,23.7433854],[86.35784,23.7443255],[86.3578285,23.7443771],[86.3581483,23.745123],[86.3602167,23.7468288],[86.3605762,23.7470733],[86.3608781,23.7475467],[86.3627793,23.747166],[86.363892,23.7461993],[86.3652663,23.7456707],[86.3666446,23.7443165],[86.3672192,23.7440789],[86.3672261,23.7440761],[86.367455,23.744271],[86.3678566,23.7446129],[86.3691492,23.7442854],[86.3691772,23.7442783],[86.3694916,23.7447167],[86.3685384,23.7454413],[86.3688175,23.7463747],[86.3689019,23.7466569],[86.3684238,23.7473349],[86.3690466,23.7494743],[86.3685671,23.7498844],[86.3682748,23.7501344],[86.3681989,23.7501993],[86.3678223,23.7517033],[86.3667005,23.754564],[86.3660201,23.7549885],[86.3661701,23.7551446],[86.3663778,23.7558254],[86.3653723,23.7564526],[86.3652628,23.7572778],[86.3652215,23.7573202],[86.3635659,23.7590192],[86.3625641,23.7588693],[86.3618767,23.7591579],[86.3616578,23.7595024],[86.3635379,23.760076],[86.3674432,23.7618631],[86.3687073,23.7664275],[86.3742793,23.7661518],[86.3780441,23.7656005],[86.3807548,23.7653249],[86.3819316,23.7651359],[86.3828412,23.7649603],[86.3833647,23.7640662],[86.3837609,23.7626339],[86.3838365,23.7603639],[86.3838455,23.7584521],[86.3842479,23.7557055],[86.384258,23.7535547],[86.3845043,23.7512863],[86.3840181,23.7493717],[86.3833749,23.7484824],[86.3802291,23.7489622],[86.378831,23.7489622],[86.3765591,23.7494421],[86.3756852,23.7472026],[86.3762095,23.7444831],[86.3772581,23.7403238],[86.3790058,23.7379242],[86.3823263,23.7360044],[86.3842487,23.7350445],[86.3844235,23.7320048],[86.3830253,23.730085],[86.3827144,23.7292717],[86.381802,23.7268852],[86.3816272,23.7243253],[86.3828149,23.7201312],[86.3827445,23.7202083],[86.3822635,23.7206097],[86.3808502,23.721789],[86.3807591,23.7223062],[86.3806841,23.7227314],[86.3805167,23.7239219],[86.379434,23.7240559],[86.3785748,23.7241622],[86.3777086,23.7245756],[86.3763055,23.725245]]]},"properties":{"ward_no":10,"ward_name":"Ward 10","councillor_name":"देवाशीष पासवान अकेला","councillor_name_en":"","reservation_category":"अनारक्षित","reservation_category_en":"Unreserved/General","gender_category":"अन्य(Other)","councillor_phone":"","lgd_ward_code":"Data pending","source_objectid":3459,"source_gisglobalid":"mlml5d6l-d4KB-PR6K-ad5o-P45nRs4lmRoc"}},{"type":"Feature","geometry":{"type":"Polygon","coordinates":[[[86.3833749,23.7484824],[86.3840181,23.7493717],[86.3845043,23.7512863],[86.384258,23.7535547],[86.3842479,23.7557055],[86.3838455,23.7584521],[86.3838365,23.7603639],[86.3837609,23.7626339],[86.3833647,23.7640662],[86.3828412,23.7649603],[86.3819316,23.7651359],[86.3807548,23.7653249],[86.3809054,23.7712512],[86.3811273,23.7742247],[86.3825096,23.7773448],[86.3828631,23.7785553],[86.3857244,23.7810359],[86.3863342,23.7823379],[86.386628,23.7829652],[86.3902422,23.7846188],[86.3925011,23.7859969],[86.3974707,23.7879261],[86.4036451,23.7899931],[86.4046992,23.7908198],[86.4050733,23.790127],[86.4037899,23.7886916],[86.4025064,23.7870605],[86.4015794,23.7832108],[86.401009,23.7771426],[86.4005018,23.7727949],[86.4010261,23.7689564],[86.4012008,23.7676768],[86.3975308,23.7628785],[86.3954336,23.7601593],[86.3950841,23.7582399],[86.3931617,23.7550408],[86.3905402,23.7513617],[86.3882683,23.7483224],[86.3833749,23.7484824]]]},"properties":{"ward_no":11,"ward_name":"Ward 11","councillor_name":"बदरी रविदास","councillor_name_en":"","reservation_category":"अनारक्षित","reservation_category_en":"Unreserved/General","gender_category":"अन्य(Other)","councillor_phone":"","lgd_ward_code":"Data pending","source_objectid":3510,"source_gisglobalid":"ddPl6KP5-KKBn-PKPs-sm4a-QRRBlc46Bads"}},{"type":"Feature","geometry":{"type":"Polygon","coordinates":[[[86.3863342,23.7823379],[86.3857244,23.7810359],[86.3828631,23.7785553],[86.3825096,23.7773448],[86.3811273,23.7742247],[86.3748612,23.7764172],[86.3754141,23.7767545],[86.3780864,23.7787784],[86.379653,23.7799589],[86.3799294,23.7811395],[86.3794687,23.7836692],[86.3791922,23.7850184],[86.3808509,23.7856086],[86.3820488,23.7852713],[86.3842604,23.7842595],[86.3863342,23.7823379]]]},"properties":{"ward_no":12,"ward_name":"Ward 12","councillor_name":"शोभा देवी","councillor_name_en":"","reservation_category":"अत्यंत पिछड़ा वर्ग-I","reservation_category_en":"Extremely Backward Class-I","gender_category":"महिला(Woman)","councillor_phone":"","lgd_ward_code":"Data pending","source_objectid":3469,"source_gisglobalid":"mcQQdnml-Roll-PlQP-Ro65-acPK5K5P5oQK"}},{"type":"Feature","geometry":{"type":"Polygon","coordinates":[[[86.3809156,23.8008564],[86.3809291,23.8013186],[86.3809379,23.8016212],[86.3812545,23.8015832],[86.3840679,23.8010164],[86.3860256,23.7996386],[86.3873809,23.7982607],[86.3897904,23.7979851],[86.3932541,23.7979851],[86.3967178,23.7971584],[86.3986755,23.7963316],[86.4015368,23.7939891],[86.4037957,23.79206],[86.4046992,23.7908198],[86.4036451,23.7899931],[86.3974707,23.7879261],[86.3925011,23.7859969],[86.3902422,23.7846188],[86.386628,23.7829652],[86.3863342,23.7823379],[86.3842604,23.7842595],[86.3820488,23.7852713],[86.3808509,23.7856086],[86.3791922,23.7850184],[86.3782707,23.7853556],[86.3735711,23.7867891],[86.3706224,23.7882225],[86.3692402,23.7892344],[86.3682265,23.791511],[86.3685789,23.7942194],[86.368959,23.7941183],[86.3703895,23.7938147],[86.3710797,23.7938175],[86.3745491,23.7938316],[86.3757155,23.7940042],[86.3761677,23.794361],[86.3763979,23.7951027],[86.3766554,23.7955578],[86.3773802,23.7960626],[86.3780793,23.7965195],[86.3789607,23.7968576],[86.3797636,23.7973149],[86.3803321,23.7979385],[86.3807693,23.7988484],[86.3809208,23.7997571],[86.3809156,23.8008564]]]},"properties":{"ward_no":13,"ward_name":"Ward 13","councillor_name":"करमी देवी","councillor_name_en":"","reservation_category":"अनुसूचित जाति","reservation_category_en":"Scheduled Caste","gender_category":"महिला(Woman)","councillor_phone":"","lgd_ward_code":"Data pending","source_objectid":3470,"source_gisglobalid":"RmnacPBl-anmc-PQQo-RK65-RKPR46oKnmdQ"}},{"type":"Feature","geometry":{"type":"Polygon","coordinates":[[[86.3816348,23.8067153],[86.39025,23.8057599],[86.3971612,23.8042423],[86.4027822,23.8025561],[86.4066525,23.800617],[86.4025058,23.7985092],[86.3986755,23.7963316],[86.3967178,23.7971584],[86.3932541,23.7979851],[86.3897904,23.7979851],[86.3873809,23.7982607],[86.3860256,23.7996386],[86.3840679,23.8010164],[86.3812545,23.8015832],[86.3811124,23.8016003],[86.3809379,23.8016212],[86.3809413,23.801644],[86.3810284,23.8022352],[86.3810285,23.8022355],[86.3811141,23.8028168],[86.3812137,23.8037253],[86.3813101,23.8045377],[86.3813386,23.8047773],[86.3814635,23.8052757],[86.3815425,23.8055906],[86.3815372,23.8067138],[86.3816348,23.8067153]]]},"properties":{"ward_no":14,"ward_name":"Ward 14","councillor_name":"मो0 नेसार आलम","councillor_name_en":"","reservation_category":"अत्यंत पिछड़ा वर्ग-I","reservation_category_en":"Extremely Backward Class-I","gender_category":"अन्य(Other)","councillor_phone":"","lgd_ward_code":"Data pending","source_objectid":3471,"source_gisglobalid":"am5nQK5o-Blno-PBBn-QRal-PPPl5P4nBB64"}},{"type":"Feature","geometry":{"type":"Polygon","coordinates":[[[86.3816348,23.8067153],[86.3815372,23.8067138],[86.3815173,23.8070181],[86.3814859,23.8075004],[86.3814531,23.8080039],[86.3814411,23.8084602],[86.3813915,23.8086066],[86.3813198,23.8092786],[86.3811994,23.810407],[86.3812745,23.8107787],[86.381285,23.8108306],[86.3812039,23.8112769],[86.3810435,23.8122321],[86.3809864,23.8133073],[86.3808507,23.8145494],[86.3805272,23.8170335],[86.3804981,23.8176786],[86.3806187,23.8181499],[86.3806512,23.8182767],[86.3809616,23.8185408],[86.3811161,23.8185889],[86.3814626,23.8194141],[86.3820539,23.819397],[86.383176,23.8193647],[86.3843978,23.8197636],[86.3856805,23.820219],[86.3858148,23.8203021],[86.3860424,23.8207836],[86.386814,23.8224117],[86.3868279,23.8224492],[86.3876699,23.8210188],[86.3878542,23.8195857],[86.3880385,23.8153707],[86.3884071,23.8136003],[86.3888678,23.8109869],[86.3901579,23.8084577],[86.39025,23.8057599],[86.3816348,23.8067153]]]},"properties":{"ward_no":15,"ward_name":"Ward 15","councillor_name":"रेमा सिंह","councillor_name_en":"","reservation_category":"अनारक्षित","reservation_category_en":"Unreserved/General","gender_category":"महिला(Woman)","councillor_phone":"","lgd_ward_code":"Data pending","source_objectid":3474,"source_gisglobalid":"lRmsmBsa-acsn-PBn6-QcBP-lRR5mldca6Pm"}},{"type":"Feature","geometry":{"type":"Polygon","coordinates":[[[86.3868279,23.8224492],[86.3870449,23.8230339],[86.3873277,23.8236564],[86.3875581,23.8243742],[86.3877627,23.8250681],[86.3880207,23.8254515],[86.3892634,23.8261901],[86.3893159,23.8262213],[86.3897559,23.8265815],[86.3899361,23.8269168],[86.3911777,23.8266825],[86.3918233,23.8263791],[86.3924975,23.8261879],[86.3930013,23.826045],[86.393567,23.8258846],[86.3953178,23.8254555],[86.3964577,23.8251687],[86.397473,23.8248245],[86.398065,23.8246239],[86.3980803,23.8245809],[86.3983591,23.8238007],[86.3983591,23.8227048],[86.3971612,23.8203444],[86.3965161,23.8185741],[86.3966083,23.8163823],[86.3978062,23.8138533],[86.3985434,23.8125044],[86.3985434,23.809638],[86.3978062,23.8073617],[86.3971612,23.8042423],[86.39025,23.8057599],[86.3901579,23.8084577],[86.3888678,23.8109869],[86.3884071,23.8136003],[86.3880385,23.8153707],[86.3878542,23.8195857],[86.3876699,23.8210188],[86.3868279,23.8224492]]]},"properties":{"ward_no":16,"ward_name":"Ward 16","councillor_name":"अरूणा कुमारी","councillor_name_en":"","reservation_category":"अनारक्षित","reservation_category_en":"Unreserved/General","gender_category":"महिला(Woman)","councillor_phone":"","lgd_ward_code":"Data pending","source_objectid":3475,"source_gisglobalid":"aPssQ4dK-BcsB-PQ6d-aRoR-lRKloPamRKdl"}},{"type":"Feature","geometry":{"type":"Polygon","coordinates":[[[86.3980803,23.8245809],[86.3993098,23.8242019],[86.4004471,23.8237051],[86.4010646,23.8236944],[86.4027079,23.8246768],[86.4033306,23.8250998],[86.4035013,23.8249803],[86.4041668,23.8235888],[86.404452,23.8206317],[86.4054028,23.8195011],[86.405731,23.8178997],[86.405731,23.8136003],[86.4052702,23.8104811],[86.4027822,23.8054227],[86.4021372,23.8038208],[86.4027822,23.8025561],[86.3971612,23.8042423],[86.3978062,23.8073617],[86.3985434,23.809638],[86.3985434,23.8125044],[86.3978062,23.8138533],[86.3966083,23.8163823],[86.3965161,23.8185741],[86.3971612,23.8203444],[86.3983591,23.8227048],[86.3983591,23.8238007],[86.3980803,23.8245809]]]},"properties":{"ward_no":17,"ward_name":"Ward 17","councillor_name":"मो0 इम्तियाज अंसारी","councillor_name_en":"","reservation_category":"अत्यंत पिछड़ा वर्ग-I","reservation_category_en":"Extremely Backward Class-I","gender_category":"अन्य(Other)","councillor_phone":"","lgd_ward_code":"Data pending","source_objectid":3473,"source_gisglobalid":"5sPndBlB-a4mK-PasQ-ancc-66mdc65B6cBQ"}},{"type":"Feature","geometry":{"type":"Polygon","coordinates":[[[86.4118677,23.8221103],[86.4139587,23.819168],[86.4158811,23.8180489],[86.4169297,23.8164501],[86.4167549,23.8138919],[86.4178035,23.8089354],[86.4204249,23.8044583],[86.4218231,23.7990217],[86.4198297,23.7987621],[86.4174339,23.7999425],[86.4143008,23.8007856],[86.4101541,23.8009542],[86.4066525,23.800617],[86.4027822,23.8025561],[86.4021372,23.8038208],[86.4027822,23.8054227],[86.4052702,23.8104811],[86.405731,23.8136003],[86.405731,23.8178997],[86.4054028,23.8195011],[86.4050997,23.8198615],[86.404452,23.8206317],[86.4041668,23.8235888],[86.4035013,23.8249803],[86.4033306,23.8250998],[86.4043931,23.8258215],[86.4047739,23.8265465],[86.4049788,23.8269365],[86.4055383,23.8289325],[86.4058495,23.8300523],[86.4064097,23.8303849],[86.4081275,23.8308442],[86.4114874,23.8244585],[86.4118677,23.8221103]]]},"properties":{"ward_no":18,"ward_name":"Ward 18","councillor_name":"समीदा बीबी","councillor_name_en":"","reservation_category":"अत्यंत पिछड़ा वर्ग-I","reservation_category_en":"Extremely Backward Class-I","gender_category":"महिला(Woman)","councillor_phone":"","lgd_ward_code":"Data pending","source_objectid":3472,"source_gisglobalid":"PssdQo5n-cc54-PodK-ad6c-oo4smQK5464s"}},{"type":"Feature","geometry":{"type":"Polygon","coordinates":[[[86.4246819,23.795216],[86.4218298,23.795216],[86.4169811,23.7953465],[86.4118472,23.7953465],[86.4057151,23.7947593],[86.4015368,23.7939891],[86.3986755,23.7963316],[86.4025058,23.7985092],[86.4066525,23.800617],[86.4101541,23.8009542],[86.4143008,23.8007856],[86.4174339,23.7999425],[86.4198297,23.7987621],[86.4218231,23.7990217],[86.4271058,23.7985823],[86.4259654,23.7965209],[86.4246819,23.795216]]]},"properties":{"ward_no":19,"ward_name":"Ward 19","councillor_name":"नाजिया प्रवीण","councillor_name_en":"","reservation_category":"अत्यंत पिछड़ा वर्ग-I","reservation_category_en":"Extremely Backward Class-I","gender_category":"महिला(Woman)","councillor_phone":"","lgd_ward_code":"Data pending","source_objectid":3483,"source_gisglobalid":"cocQoRsn-l4lo-P6KQ-asBm-5Pd4dQ6ls564"}},{"type":"Feature","geometry":{"type":"Polygon","coordinates":[[[86.4177981,23.8303495],[86.4208077,23.827942],[86.4243254,23.8230716],[86.425181,23.8208104],[86.4258465,23.8181142],[86.425181,23.814983],[86.4247057,23.8116779],[86.425086,23.810982],[86.4279381,23.8091555],[86.4301504,23.8073617],[86.4285838,23.8023032],[86.4271058,23.7985823],[86.4218231,23.7990217],[86.4204249,23.8044583],[86.4178035,23.8089354],[86.4167549,23.8138919],[86.4169297,23.8164501],[86.4158811,23.8180489],[86.4139587,23.819168],[86.4118677,23.8221103],[86.4114874,23.8244585],[86.4081275,23.8308442],[86.408862,23.8314673],[86.4096545,23.8321873],[86.4103165,23.8322736],[86.4111826,23.8319768],[86.4122721,23.8316035],[86.4133208,23.8312672],[86.4139354,23.8311647],[86.4155437,23.8320538],[86.4158868,23.8320478],[86.4168659,23.8315415],[86.4174127,23.8313602],[86.4177981,23.8303495]]]},"properties":{"ward_no":20,"ward_name":"Ward 20","councillor_name":"अशोक कुमार गुप्ता","councillor_name_en":"","reservation_category":"अनारक्षित","reservation_category_en":"Unreserved/General","gender_category":"अन्य(Other)","councillor_phone":"","lgd_ward_code":"Data pending","source_objectid":3476,"source_gisglobalid":"444lmo6P-s4Ba-Pc5K-aPBa-dnQc5RooQK5K"}},{"type":"Feature","geometry":{"type":"Polygon","coordinates":[[[86.4195267,23.830736],[86.4198968,23.8307084],[86.4201096,23.8308663],[86.4220314,23.8322925],[86.4253965,23.8323614],[86.4262307,23.8320279],[86.4264529,23.832616],[86.426844,23.8322246],[86.4270934,23.831975],[86.4283184,23.830377],[86.4297445,23.8300292],[86.4329769,23.8298552],[86.435734,23.8297683],[86.4358095,23.829747],[86.4382059,23.8290725],[86.4394418,23.8282029],[86.4404876,23.8266374],[86.4425792,23.8248111],[86.4451461,23.8237674],[86.4486638,23.8230716],[86.4499948,23.8227238],[86.4504702,23.822028],[86.4509455,23.8208104],[86.4506603,23.8195927],[86.4495194,23.8175054],[86.4482835,23.8154179],[86.4477507,23.8143591],[86.4463685,23.8145277],[86.444802,23.8152864],[86.4438805,23.8153707],[86.4428669,23.8150335],[86.4413003,23.8141905],[86.4389045,23.8130945],[86.4355871,23.8123358],[86.4338363,23.811577],[86.4333756,23.8104811],[86.4328227,23.8091322],[86.4301504,23.8073617],[86.4279381,23.8091555],[86.425086,23.810982],[86.4247057,23.8116779],[86.425181,23.814983],[86.4258465,23.8181142],[86.425181,23.8208104],[86.4243254,23.8230716],[86.4208077,23.827942],[86.4177981,23.8303495],[86.4174127,23.8313602],[86.4183263,23.8310573],[86.4194505,23.830793],[86.4194776,23.8307902],[86.41947,23.8307402],[86.4195267,23.830736]]]},"properties":{"ward_no":21,"ward_name":"Ward 21","councillor_name":"उर्मिला मंडल","councillor_name_en":"","reservation_category":"अनारक्षित","reservation_category_en":"Unreserved/General","gender_category":"महिला(Woman)","councillor_phone":"","lgd_ward_code":"Data pending","source_objectid":3477,"source_gisglobalid":"RnR645cs-lB6m-PQlB-smmd-n4P5mQa5nc45"}},{"type":"Feature","geometry":{"type":"Polygon","coordinates":[[[86.4358095,23.829747],[86.4368245,23.8296682],[86.4387238,23.8307128],[86.4414777,23.8313776],[86.4429972,23.8312826],[86.4455612,23.8312826],[86.4471756,23.830238],[86.4522087,23.8315675],[86.4560073,23.832897],[86.4574497,23.8351262],[86.4574777,23.8351169],[86.4583709,23.8348191],[86.4594294,23.8338851],[86.4601713,23.8329031],[86.4596888,23.8327204],[86.4588332,23.8327204],[86.4571499,23.8313028],[86.4577028,23.8297013],[86.459085,23.8286898],[86.4632317,23.8278468],[86.4672862,23.8265824],[86.472723,23.8251494],[86.4729073,23.8240535],[86.4721701,23.8229577],[86.4684842,23.8212717],[86.4632317,23.8183212],[86.4591772,23.8168038],[86.4539247,23.8148649],[86.4498702,23.8141062],[86.4477507,23.8143591],[86.4482835,23.8154179],[86.4495194,23.8175054],[86.4506603,23.8195927],[86.4509455,23.8208104],[86.4504702,23.822028],[86.4499948,23.8227238],[86.4486638,23.8230716],[86.4451461,23.8237674],[86.4425792,23.8248111],[86.4404876,23.8266374],[86.4394418,23.8282029],[86.4382059,23.8290725],[86.4358095,23.829747]]]},"properties":{"ward_no":22,"ward_name":"Ward 22","councillor_name":"सुमन सिंह","councillor_name_en":"","reservation_category":"अनारक्षित","reservation_category_en":"Unreserved/General","gender_category":"महिला(Woman)","councillor_phone":"","lgd_ward_code":"Data pending","source_objectid":3478,"source_gisglobalid":"P6nKoaKl-KmcB-PBn4-sasQ-dBQn4ll56cB4"}},{"type":"Feature","geometry":{"type":"Polygon","coordinates":[[[86.4655833,23.8351554],[86.4682934,23.8357952],[86.4686659,23.8354879],[86.4697132,23.8339404],[86.470517,23.8324932],[86.4726305,23.8290831],[86.4741105,23.8274786],[86.477984,23.8260516],[86.478998,23.8258009],[86.4793196,23.825876],[86.48047,23.8261447],[86.4807443,23.8266539],[86.480557,23.8274157],[86.4816598,23.8280125],[86.4833026,23.8250732],[86.4865752,23.8192184],[86.4874227,23.8183086],[86.491846,23.8135598],[86.4913765,23.8126881],[86.4912677,23.812486],[86.4912428,23.8124399],[86.4910581,23.8120969],[86.4908735,23.8116078],[86.4902577,23.8106404],[86.4898247,23.8100061],[86.4884125,23.8077994],[86.4882848,23.8070655],[86.4882805,23.8070249],[86.4888379,23.805756],[86.4891828,23.8056515],[86.4902207,23.805337],[86.4911319,23.8049215],[86.4911431,23.8049164],[86.4923492,23.8025483],[86.4916979,23.8020512],[86.4915667,23.8019511],[86.4916122,23.8018407],[86.4916635,23.8015923],[86.4917009,23.801411],[86.4914788,23.8009258],[86.4908603,23.8009063],[86.4905435,23.8010238],[86.4900805,23.8011955],[86.4896806,23.8016335],[86.4894844,23.8018484],[86.4890819,23.8021308],[86.4885361,23.8022323],[86.4881557,23.8021474],[86.4875926,23.8017295],[86.4875105,23.8016533],[86.4873129,23.8014701],[86.4870485,23.8012248],[86.4868488,23.8010396],[86.4858941,23.8002006],[86.4850879,23.7996953],[86.4849566,23.7996708],[86.4846785,23.799619],[86.484371,23.7998923],[86.4839317,23.8000218],[86.4833727,23.7997261],[86.4831523,23.7993373],[86.483081,23.7992115],[86.4828185,23.7985435],[86.4826197,23.7981883],[86.4825444,23.7980538],[86.4822797,23.7975758],[86.4814763,23.798464],[86.4807234,23.7987497],[86.4793278,23.8007004],[86.4778345,23.8020729],[86.4774991,23.80233],[86.4762445,23.8032918],[86.4752331,23.8041977],[86.474042,23.8059851],[86.4735801,23.8064697],[86.4729725,23.8067197],[86.4724141,23.8068798],[86.4722086,23.8068791],[86.4710974,23.8114123],[86.4672028,23.8147221],[86.4632317,23.8183212],[86.4684842,23.8212717],[86.4721701,23.8229577],[86.4729073,23.8240535],[86.472723,23.8251494],[86.4672862,23.8265824],[86.4632317,23.8278468],[86.459085,23.8286898],[86.4577028,23.8297013],[86.4571499,23.8313028],[86.4588332,23.8327204],[86.4596888,23.8327204],[86.4624459,23.833764],[86.4655833,23.8351554]]]},"properties":{"ward_no":23,"ward_name":"Ward 23","councillor_name":"पुष्पा देवी","councillor_name_en":"","reservation_category":"अनारक्षित","reservation_category_en":"Unreserved/General","gender_category":"अन्य(Other)","councillor_phone":"","lgd_ward_code":"Data pending","source_objectid":3479,"source_gisglobalid":"aQ5o5QQl-PaK6-P6oc-RalQ-doKla6lcsols"}},{"type":"Feature","geometry":{"type":"Polygon","coordinates":[[[86.4672028,23.8147221],[86.4710974,23.8114123],[86.4722086,23.8068791],[86.4720237,23.8066444],[86.4712451,23.8056155],[86.4703958,23.8051354],[86.4694284,23.804808],[86.4686971,23.8046575],[86.4685388,23.8046249],[86.4682851,23.804453],[86.4678285,23.8036322],[86.4676363,23.8027852],[86.4676871,23.8023353],[86.4676926,23.8023153],[86.4678956,23.8015888],[86.4683104,23.800645],[86.4685575,23.8000336],[86.4685981,23.7996557],[86.4686693,23.7990077],[86.4685477,23.7988046],[86.4685899,23.7987084],[86.4684594,23.7984881],[86.4684351,23.7984472],[86.4680838,23.7978541],[86.4672455,23.7977941],[86.4654718,23.7973211],[86.465207,23.7972506],[86.4646476,23.7969871],[86.4644656,23.7970144],[86.4643938,23.7971615],[86.4640123,23.797204],[86.4640102,23.7977226],[86.4640092,23.7979483],[86.463647,23.7986086],[86.4623887,23.7986042],[86.4615896,23.7989402],[86.4612183,23.7990964],[86.4591531,23.7985929],[86.4568167,23.798502],[86.4555945,23.7987318],[86.4564564,23.8004524],[86.4567416,23.8015832],[86.4538928,23.8042844],[86.4488539,23.8081987],[86.4477507,23.8143591],[86.4498702,23.8141062],[86.4539247,23.8148649],[86.4591772,23.8168038],[86.4632317,23.8183212],[86.4672028,23.8147221]]]},"properties":{"ward_no":24,"ward_name":"Ward 24","councillor_name":"सरिता सिंह","councillor_name_en":"","reservation_category":"अनारक्षित","reservation_category_en":"Unreserved/General","gender_category":"महिला(Woman)","councillor_phone":"","lgd_ward_code":"Data pending","source_objectid":3480,"source_gisglobalid":"6mK5nl5d-PaK5-PmRa-scnK-nP4mlQnoaocQ"}},{"type":"Feature","geometry":{"type":"Polygon","coordinates":[[[86.4527044,23.7984781],[86.4512783,23.7988043],[86.4492818,23.7995872],[86.4482835,23.8008268],[86.4468574,23.803893],[86.4457166,23.8060459],[86.4437201,23.8071549],[86.4453363,23.8099383],[86.4477507,23.8143591],[86.4488539,23.8081987],[86.4538928,23.8042844],[86.4567416,23.8015832],[86.4564564,23.8004524],[86.4555945,23.7987318],[86.4553633,23.7987753],[86.4546579,23.7989079],[86.4544485,23.798405],[86.4527044,23.7984781]]]},"properties":{"ward_no":25,"ward_name":"Ward 25","councillor_name":"प्रिय रंजन","councillor_name_en":"","reservation_category":"अनारक्षित","reservation_category_en":"Unreserved/General","gender_category":"अन्य(Other)","councillor_phone":"","lgd_ward_code":"Data pending","source_objectid":3485,"source_gisglobalid":"RmncaQPl-Qnns-P65c-a6B5-KlnosaRQo4oa"}},{"type":"Feature","geometry":{"type":"Polygon","coordinates":[[[86.4477507,23.8143591],[86.4453363,23.8099383],[86.4437201,23.8071549],[86.4406778,23.8035886],[86.4392517,23.8019359],[86.4363045,23.8004571],[86.4328332,23.7993415],[86.4307361,23.7993415],[86.4275903,23.798542],[86.4271058,23.7985823],[86.4285838,23.8023032],[86.4301504,23.8073617],[86.4328227,23.8091322],[86.4333756,23.8104811],[86.4338363,23.811577],[86.4355871,23.8123358],[86.4389045,23.8130945],[86.4413003,23.8141905],[86.4428669,23.8150335],[86.4438805,23.8153707],[86.444802,23.8152864],[86.4463685,23.8145277],[86.4477507,23.8143591]]]},"properties":{"ward_no":26,"ward_name":"Ward 26","councillor_name":"विकास रंजन","councillor_name_en":"","reservation_category":"अनारक्षित","reservation_category_en":"Unreserved/General","gender_category":"अन्य(Other)","councillor_phone":"","lgd_ward_code":"Data pending","source_objectid":3481,"source_gisglobalid":"nsRonQRd-6onc-P5sm-Qa64-a5dsP4od5n6m"}},{"type":"Feature","geometry":{"type":"Polygon","coordinates":[[[86.4445044,23.7935197],[86.4429357,23.793324],[86.4405114,23.7933892],[86.4368036,23.7941069],[86.4340227,23.7941069],[86.4290315,23.7941722],[86.4263932,23.7940417],[86.4246819,23.795216],[86.4259654,23.7965209],[86.4271058,23.7985823],[86.4275903,23.798542],[86.4307361,23.7993415],[86.4328332,23.7993415],[86.4363045,23.8004571],[86.4392517,23.8019359],[86.4409392,23.800892],[86.4417949,23.7993915],[86.4417949,23.7984781],[86.4415809,23.7972385],[86.4415809,23.7960642],[86.4422227,23.7949551],[86.4445044,23.7935197]]]},"properties":{"ward_no":27,"ward_name":"Ward 27","councillor_name":"स्वेतमा राज","councillor_name_en":"","reservation_category":"अनारक्षित","reservation_category_en":"Unreserved/General","gender_category":"महिला(Woman)","councillor_phone":"","lgd_ward_code":"Data pending","source_objectid":3486,"source_gisglobalid":"locQadPl-nasR-PmRs-Qc5n-nsa6llBQPR6o"}},{"type":"Feature","geometry":{"type":"Polygon","coordinates":[[[86.4511357,23.7949551],[86.4475705,23.7939112],[86.4445044,23.7935197],[86.4422227,23.7949551],[86.4415809,23.7960642],[86.4415809,23.7972385],[86.4417949,23.7984781],[86.4417949,23.7993915],[86.4409392,23.800892],[86.4392517,23.8019359],[86.4406778,23.8035886],[86.4437201,23.8071549],[86.4457166,23.8060459],[86.4468574,23.803893],[86.4482835,23.8008268],[86.4492818,23.7995872],[86.4512783,23.7988043],[86.4527044,23.7984781],[86.4544485,23.798405],[86.4541265,23.7975221],[86.4537514,23.7966142],[86.4537186,23.7961048],[86.4511357,23.7949551]]]},"properties":{"ward_no":28,"ward_name":"Ward 28","councillor_name":"मनोरंजन कुमार","councillor_name_en":"","reservation_category":"अनारक्षित","reservation_category_en":"Unreserved/General","gender_category":"अन्य(Other)","councillor_phone":"","lgd_ward_code":"Data pending","source_objectid":3487,"source_gisglobalid":"nonaRo5m-Kada-PRRn-Q466-cR6sRmm5oK5K"}},{"type":"Feature","geometry":{"type":"Polygon","coordinates":[[[86.4511357,23.7949551],[86.4537186,23.7961048],[86.4536517,23.7950658],[86.4534444,23.7939075],[86.4534209,23.7926355],[86.4552275,23.7916323],[86.4572112,23.790068],[86.4572963,23.7898171],[86.4573537,23.7896475],[86.4585585,23.7887095],[86.4586292,23.7862691],[86.4584089,23.7846627],[86.458423,23.7843715],[86.458447,23.7838752],[86.4577793,23.7831232],[86.4566339,23.7814976],[86.456645,23.7814797],[86.4570487,23.7808285],[86.454384,23.7783973],[86.4532134,23.7789721],[86.4520438,23.7792987],[86.4508165,23.7795362],[86.4507846,23.7795423],[86.4496129,23.7803652],[86.4479953,23.7803594],[86.4472785,23.7798606],[86.4482438,23.7788756],[86.4488128,23.7782948],[86.4496625,23.777093],[86.4506209,23.7757376],[86.4508177,23.7752452],[86.4487743,23.7750876],[86.4455027,23.7753155],[86.4421514,23.775968],[86.4379444,23.7768816],[86.4362332,23.7780561],[86.4361618,23.7805356],[86.4365897,23.7816449],[86.4381584,23.7841896],[86.4386575,23.7857555],[86.439727,23.7880392],[86.4401549,23.7896703],[86.4405114,23.7933892],[86.4429357,23.793324],[86.4445044,23.7935197],[86.4475705,23.7939112],[86.4511357,23.7949551]]]},"properties":{"ward_no":29,"ward_name":"Ward 29","councillor_name":"संजु देवी","councillor_name_en":"","reservation_category":"अनारक्षित","reservation_category_en":"Unreserved/General","gender_category":"अन्य(Other)","councillor_phone":"","lgd_ward_code":"Data pending","source_objectid":3488,"source_gisglobalid":"moRdlmQa-oncc-PRKs-Q4Pa-Ksnd5RaP6Ras"}},{"type":"Feature","geometry":{"type":"Polygon","coordinates":[[[86.4356295,23.7532812],[86.4310856,23.7553607],[86.4298622,23.7582399],[86.4286389,23.7631984],[86.4260174,23.7673569],[86.4258426,23.7703958],[86.4249688,23.7719952],[86.4248354,23.7730328],[86.4258228,23.7761638],[86.4264645,23.7774036],[86.4281045,23.7803399],[86.4298871,23.7837328],[86.431741,23.7860165],[86.4341653,23.7876477],[86.4344506,23.7883001],[86.4349497,23.7899313],[86.4349497,23.7922801],[86.4340227,23.7941069],[86.4368036,23.7941069],[86.4405114,23.7933892],[86.4401549,23.7896703],[86.439727,23.7880392],[86.4386575,23.7857555],[86.4381584,23.7841896],[86.4365897,23.7816449],[86.4361618,23.7805356],[86.4362332,23.7780561],[86.4379444,23.7768816],[86.4421514,23.775968],[86.4455027,23.7753155],[86.4487743,23.7750876],[86.4508177,23.7752452],[86.4509841,23.7748291],[86.4507527,23.7741089],[86.450718,23.7740012],[86.4496407,23.7737493],[86.4495596,23.7716815],[86.4495497,23.7716191],[86.4491976,23.7694001],[86.4490344,23.7683716],[86.4490375,23.7676273],[86.4492217,23.7665528],[86.4488655,23.7656124],[86.4489219,23.764793],[86.4488577,23.764097],[86.4484644,23.7634068],[86.4479777,23.7632404],[86.4474424,23.7623288],[86.4473228,23.7623063],[86.4466534,23.7621806],[86.4460957,23.7620758],[86.4452906,23.7612459],[86.4447543,23.7605824],[86.4424213,23.7598297],[86.4422709,23.7598292],[86.442047,23.7596846],[86.438853,23.7576229],[86.4401892,23.7565136],[86.4415404,23.7556915],[86.4415454,23.7545326],[86.4412341,23.754638],[86.4411923,23.7530438],[86.440774,23.752092],[86.4407564,23.7520518],[86.4404706,23.7514016],[86.4403915,23.7512215],[86.440102,23.7504569],[86.4393434,23.7513827],[86.4356295,23.7532812]]]},"properties":{"ward_no":30,"ward_name":"Ward 30","councillor_name":"निर्मला देवी","councillor_name_en":"","reservation_category":"अनारक्षित","reservation_category_en":"Unreserved/General","gender_category":"अन्य(Other)","councillor_phone":"","lgd_ward_code":"Data pending","source_objectid":3458,"source_gisglobalid":"65Bmoamd-Q66o-PnKn-RdKd-mm6m4aPoB5no"}},{"type":"Feature","geometry":{"type":"Polygon","coordinates":[[[86.4340227,23.7941069],[86.4349497,23.7922801],[86.4349497,23.7899313],[86.4344506,23.7883001],[86.4341653,23.7876477],[86.431741,23.7860165],[86.4298871,23.7837328],[86.4281045,23.7803399],[86.4264645,23.7774036],[86.4258228,23.7761638],[86.4248354,23.7730328],[86.4246193,23.7747141],[86.4230464,23.7759936],[86.4207745,23.7782326],[86.4217585,23.7799484],[86.4224002,23.7816449],[86.4235411,23.7845158],[86.4233271,23.7866037],[86.4220437,23.7900618],[86.4228993,23.7913667],[86.4238976,23.7938459],[86.4246819,23.795216],[86.4263932,23.7940417],[86.4290315,23.7941722],[86.4340227,23.7941069]]]},"properties":{"ward_no":31,"ward_name":"Ward 31","councillor_name":"मीनाक्षी सिंह","councillor_name_en":"","reservation_category":"अनारक्षित","reservation_category_en":"Unreserved/General","gender_category":"महिला(Woman)","councillor_phone":"","lgd_ward_code":"Data pending","source_objectid":3489,"source_gisglobalid":"ocKaKRnd-RBc5-PBs4-Rcss-loddll4lo6lR"}},{"type":"Feature","geometry":{"type":"Polygon","coordinates":[[[86.4246819,23.795216],[86.4238976,23.7938459],[86.4228993,23.7913667],[86.4220437,23.7900618],[86.419548,23.7878434],[86.4166246,23.7863427],[86.4151272,23.7860818],[86.4141289,23.7863427],[86.4121324,23.7869952],[86.4079255,23.7886264],[86.4050733,23.790127],[86.4046992,23.7908198],[86.4037957,23.79206],[86.4015368,23.7939891],[86.4057151,23.7947593],[86.4118472,23.7953465],[86.4169811,23.7953465],[86.4218298,23.795216],[86.4246819,23.795216]]]},"properties":{"ward_no":32,"ward_name":"Ward 32","councillor_name":"रश्मि राज","councillor_name_en":"","reservation_category":"पिछड़ा वर्ग-II","reservation_category_en":"Backward Class-II","gender_category":"अन्य(Other)","councillor_phone":"","lgd_ward_code":"Data pending","source_objectid":3484,"source_gisglobalid":"P4sPQBcl-6oa4-PdaK-a4B4-P5daPcBddo4Q"}},{"type":"Feature","geometry":{"type":"Polygon","coordinates":[[[86.4220437,23.7900618],[86.4233271,23.7866037],[86.4235411,23.7845158],[86.4224002,23.7816449],[86.4217585,23.7799484],[86.4207745,23.7782326],[86.4188521,23.7785525],[86.4164054,23.7767932],[86.4132596,23.775034],[86.4111624,23.7737545],[86.4090653,23.7745542],[86.4048709,23.7743942],[86.4017251,23.7735946],[86.4005018,23.7727949],[86.401009,23.7771426],[86.4015794,23.7832108],[86.4025064,23.7870605],[86.4037899,23.7886916],[86.4050733,23.790127],[86.4079255,23.7886264],[86.4121324,23.7869952],[86.4141289,23.7863427],[86.4151272,23.7860818],[86.4166246,23.7863427],[86.419548,23.7878434],[86.4220437,23.7900618]]]},"properties":{"ward_no":33,"ward_name":"Ward 33","councillor_name":"मेनका सिंह","councillor_name_en":"","reservation_category":"अनारक्षित","reservation_category_en":"Unreserved/General","gender_category":"महिला(Woman)","councillor_phone":"","lgd_ward_code":"Data pending","source_objectid":3482,"source_gisglobalid":"mdc5B45o-PRPn-P5c6-sQlo-ocKR56oB4BB6"}},{"type":"Feature","geometry":{"type":"Polygon","coordinates":[[[86.4133459,23.7520809],[86.4124176,23.7525404],[86.4125602,23.7541067],[86.4129881,23.7574351],[86.4128455,23.7628517],[86.4120611,23.7674197],[86.4099933,23.7714656],[86.4089951,23.7736189],[86.4090653,23.7745542],[86.4111624,23.7737545],[86.4132596,23.775034],[86.4164054,23.7767932],[86.4188521,23.7785525],[86.4207745,23.7782326],[86.4230464,23.7759936],[86.4246193,23.7747141],[86.4248354,23.7730328],[86.4249688,23.7719952],[86.4258426,23.7703958],[86.4260174,23.7673569],[86.4286389,23.7631984],[86.4298622,23.7582399],[86.4270444,23.757312],[86.422908,23.7559172],[86.4204835,23.7549576],[86.4188805,23.7543231],[86.4133459,23.7520809]]]},"properties":{"ward_no":34,"ward_name":"Ward 34","councillor_name":"गोरी देवी","councillor_name_en":"","reservation_category":"अनुसूचित जाति","reservation_category_en":"Scheduled Caste","gender_category":"महिला(Woman)","councillor_phone":"","lgd_ward_code":"Data pending","source_objectid":3490,"source_gisglobalid":"adaPlPad-mcsa-PlRK-Q6KB-aPcslm5BB5QQ"}},{"type":"Feature","geometry":{"type":"Polygon","coordinates":[[[86.4124176,23.7525404],[86.4079968,23.7531277],[86.4034333,23.7563909],[86.3999395,23.7582182],[86.3973012,23.7539109],[86.3929517,23.7482981],[86.3906699,23.7450348],[86.3877465,23.7415103],[86.3858926,23.7392911],[86.3847517,23.7374635],[86.3842487,23.7350445],[86.3823263,23.7360044],[86.3790058,23.7379242],[86.3772581,23.7403238],[86.3762095,23.7444831],[86.3756852,23.7472026],[86.3765591,23.7494421],[86.378831,23.7489622],[86.3802291,23.7489622],[86.3833749,23.7484824],[86.3882683,23.7483224],[86.3905402,23.7513617],[86.3931617,23.7550408],[86.3950841,23.7582399],[86.3954336,23.7601593],[86.3975308,23.7628785],[86.4012008,23.7676768],[86.4010261,23.7689564],[86.4005018,23.7727949],[86.4017251,23.7735946],[86.4048709,23.7743942],[86.4090653,23.7745542],[86.4089951,23.7736189],[86.4099933,23.7714656],[86.4120611,23.7674197],[86.4128455,23.7628517],[86.4129881,23.7574351],[86.4125602,23.7541067],[86.4124176,23.7525404]]]},"properties":{"ward_no":35,"ward_name":"Ward 35","councillor_name":"सोनाली कुमारी","councillor_name_en":"","reservation_category":"अनुसूचित जाति","reservation_category_en":"Scheduled Caste","gender_category":"अन्य(Other)","councillor_phone":"","lgd_ward_code":"Data pending","source_objectid":3491,"source_gisglobalid":"lo4RQKBm-aR4c-P6P6-s4ad-5BmslcKB66co"}},{"type":"Feature","geometry":{"type":"Polygon","coordinates":[[[86.4055725,23.7508435],[86.4015081,23.7469275],[86.3984421,23.7435989],[86.3963743,23.7419019],[86.3906699,23.7450348],[86.3929517,23.7482981],[86.3973012,23.7539109],[86.3999395,23.7582182],[86.4034333,23.7563909],[86.4079968,23.7531277],[86.4055725,23.7508435]]]},"properties":{"ward_no":36,"ward_name":"Ward 36","councillor_name":"सुमन देवी","councillor_name_en":"","reservation_category":"पिछड़ा वर्ग-II","reservation_category_en":"Backward Class-II","gender_category":"अन्य(Other)","councillor_phone":"","lgd_ward_code":"Data pending","source_objectid":3494,"source_gisglobalid":"ncn6d54Q-6omm-PBnB-snBs-54Pcmomo6sdm"}},{"type":"Feature","geometry":{"type":"Polygon","coordinates":[[[86.4060003,23.7367455],[86.4064994,23.735179],[86.4065707,23.7328291],[86.4062855,23.7317195],[86.4053586,23.7295654],[86.404289,23.7280641],[86.401936,23.7286515],[86.3975151,23.7285863],[86.3944491,23.7279335],[86.3921673,23.7259752],[86.3914543,23.7269544],[86.388816,23.7281293],[86.3862491,23.7288474],[86.3827144,23.7292717],[86.3830253,23.730085],[86.3844235,23.7320048],[86.3842487,23.7350445],[86.3847517,23.7374635],[86.3858926,23.7392911],[86.3877465,23.7415103],[86.3906699,23.7450348],[86.3963743,23.7419019],[86.3970873,23.740466],[86.4022925,23.7382468],[86.4060003,23.7367455]]]},"properties":{"ward_no":37,"ward_name":"Ward 37","councillor_name":"गुड़िया देवी","councillor_name_en":"","reservation_category":"अनारक्षित","reservation_category_en":"Unreserved/General","gender_category":"महिला(Woman)","councillor_phone":"","lgd_ward_code":"Data pending","source_objectid":3497,"source_gisglobalid":"PnnlK6an-cRPB-P66Q-aRmP-salRasPdd4Ro"}},{"type":"Feature","geometry":{"type":"Polygon","coordinates":[[[86.3833693,23.6887532],[86.3828608,23.6894846],[86.3813855,23.6909837],[86.3790536,23.6925065],[86.3761269,23.6937438],[86.373676,23.6942911],[86.3724149,23.6949812],[86.3717249,23.6960519],[86.3714393,23.6975272],[86.3715107,23.6986693],[86.3717249,23.7002398],[86.3719152,23.7013105],[86.3729812,23.7043039],[86.3741519,23.7077018],[86.3741244,23.7080207],[86.3752621,23.7066286],[86.3752937,23.7066165],[86.3775841,23.7057446],[86.37958,23.7054051],[86.3808732,23.7055096],[86.3821645,23.7060111],[86.3836179,23.7064139],[86.3849111,23.7065183],[86.3856643,23.7068191],[86.3863597,23.7079634],[86.3864626,23.7090061],[86.3872101,23.7105477],[86.3872075,23.7110937],[86.3859066,23.7126271],[86.3855928,23.7130112],[86.3848018,23.7139795],[86.3844654,23.7143913],[86.3836838,23.7153481],[86.3831643,23.7164225],[86.383085,23.7165865],[86.3830812,23.7173806],[86.3833477,23.7180269],[86.3835383,23.7186061],[86.3835603,23.718673],[86.3835596,23.7188305],[86.3835578,23.7192039],[86.3835573,23.7193182],[86.3829817,23.7199486],[86.3828149,23.7201312],[86.3816272,23.7243253],[86.381802,23.7268852],[86.3827144,23.7292717],[86.3862491,23.7288474],[86.388816,23.7281293],[86.3914543,23.7269544],[86.3921673,23.7259752],[86.3928804,23.7225155],[86.3940212,23.7199043],[86.3943777,23.7181417],[86.3945204,23.7174236],[86.3933082,23.716118],[86.3929517,23.7131149],[86.3926665,23.7101118],[86.3923099,23.7082186],[86.3923099,23.7054765],[86.3916682,23.7027997],[86.3903847,23.6990782],[86.3883169,23.695226],[86.3846361,23.6893872],[86.3833693,23.6887532]]]},"properties":{"ward_no":38,"ward_name":"Ward 38","councillor_name":"जय कुमार","councillor_name_en":"","reservation_category":"अनुसूचित जाति","reservation_category_en":"Scheduled Caste","gender_category":"अन्य(Other)","councillor_phone":"","lgd_ward_code":"Data pending","source_objectid":3495,"source_gisglobalid":"ml6oonKs-Q5dP-P4sP-sQ5a-nlo4Rlam6Rlm"}},{"type":"Feature","geometry":{"type":"Polygon","coordinates":[[[86.3999305,23.6709459],[86.3984224,23.6704013],[86.394877,23.669283],[86.3924024,23.669164],[86.389785,23.6697351],[86.3870248,23.6712579],[86.385264,23.6725904],[86.3841457,23.6739229],[86.3832653,23.6756837],[86.3835984,23.6797764],[86.3839791,23.6837977],[86.3839315,23.6868672],[86.3837887,23.6879617],[86.3833693,23.6887532],[86.3846361,23.6893872],[86.3883169,23.695226],[86.3903847,23.6990782],[86.3916682,23.7027997],[86.3923099,23.7054765],[86.3947923,23.7039201],[86.3981198,23.6984793],[86.400972,23.6949971],[86.4040618,23.6932559],[86.4057256,23.6912971],[86.4078596,23.6887656],[86.405165,23.6888492],[86.4024437,23.6887495],[86.4008109,23.6879521],[86.3999401,23.6857591],[86.3995047,23.683267],[86.3995047,23.6793792],[86.3999401,23.6749929],[86.3999893,23.6713232],[86.3999305,23.6709459]]]},"properties":{"ward_no":39,"ward_name":"Ward 39","councillor_name":"चन्दन कुमार महतो","councillor_name_en":"","reservation_category":"अत्यंत पिछड़ा वर्ग-I","reservation_category_en":"Extremely Backward Class-I","gender_category":"अन्य(Other)","councillor_phone":"","lgd_ward_code":"Data pending","source_objectid":3496,"source_gisglobalid":"Qnocc5KQ-aQPn-PdKm-Q4nd-scaoRmPRdn6d"}},{"type":"Feature","geometry":{"type":"Polygon","coordinates":[[[86.4078596,23.6887656],[86.4057256,23.6912971],[86.4040618,23.6932559],[86.400972,23.6949971],[86.3981198,23.6984793],[86.3947923,23.7039201],[86.3923099,23.7054765],[86.3923099,23.7082186],[86.3926665,23.7101118],[86.3960177,23.7090673],[86.3987986,23.7090673],[86.4048594,23.7075004],[86.4117759,23.7061294],[86.4152698,23.7055418],[86.4167672,23.7052154],[86.4208398,23.7050962],[86.4225815,23.7058935],[86.4234523,23.7064915],[86.4241054,23.7058935],[86.4246497,23.7039002],[86.4242143,23.7022058],[86.422908,23.6985179],[86.4223638,23.6959264],[86.4186628,23.695129],[86.4174654,23.6943316],[86.4161592,23.6917399],[86.4159414,23.6896467],[86.4139821,23.6896467],[86.4115873,23.6886499],[86.4078596,23.6887656]]]},"properties":{"ward_no":40,"ward_name":"Ward 40","councillor_name":"काजल कुमारी","councillor_name_en":"","reservation_category":"अत्यंत पिछड़ा वर्ग-I","reservation_category_en":"Extremely Backward Class-I","gender_category":"महिला(Woman)","councillor_phone":"","lgd_ward_code":"Data pending","source_objectid":3509,"source_gisglobalid":"P46d55mK-5n6d-Poll-sRma-KsaBB5amsK56"}},{"type":"Feature","geometry":{"type":"Polygon","coordinates":[[[86.404289,23.7280641],[86.4046455,23.7250613],[86.4047881,23.7224502],[86.4042177,23.7191209],[86.4038612,23.7170319],[86.4023638,23.7139636],[86.4016507,23.7124621],[86.3987986,23.7090673],[86.3960177,23.7090673],[86.3926665,23.7101118],[86.3929517,23.7131149],[86.3933082,23.716118],[86.3945204,23.7174236],[86.3943777,23.7181417],[86.3940212,23.7199043],[86.3928804,23.7225155],[86.3921673,23.7259752],[86.3944491,23.7279335],[86.3975151,23.7285863],[86.401936,23.7286515],[86.404289,23.7280641]]]},"properties":{"ward_no":41,"ward_name":"Ward 41","councillor_name":"अनुरंजन कुमार सिंह","councillor_name_en":"","reservation_category":"अत्यंत पिछड़ा वर्ग-I","reservation_category_en":"Extremely Backward Class-I","gender_category":"अन्य(Other)","councillor_phone":"","lgd_ward_code":"Data pending","source_objectid":3498,"source_gisglobalid":"mBBn4cBB-mQlm-PKsd-alQn-KsKB6m6PP5aB"}},{"type":"Feature","geometry":{"type":"Polygon","coordinates":[[[86.4178075,23.7241464],[86.4179008,23.7218394],[86.4185539,23.7204442],[86.4208398,23.7202449],[86.4223638,23.7200456],[86.4238877,23.719647],[86.4230169,23.7126708],[86.4230169,23.7113752],[86.4226903,23.7108768],[86.4212752,23.7108768],[86.4182274,23.7118735],[86.4132201,23.7153616],[86.4121316,23.7154613],[86.4121316,23.7147637],[86.412567,23.7115745],[86.4128936,23.7085845],[86.4141998,23.7069899],[86.4183362,23.7053952],[86.4208398,23.7050962],[86.4167672,23.7052154],[86.4152698,23.7055418],[86.4117759,23.7061294],[86.4048594,23.7075004],[86.3987986,23.7090673],[86.4016507,23.7124621],[86.4023638,23.7139636],[86.4038612,23.7170319],[86.4042177,23.7191209],[86.4047881,23.7224502],[86.4046455,23.7250613],[86.404289,23.7280641],[86.4053586,23.7295654],[86.4062855,23.7317195],[86.4111342,23.7284557],[86.4178075,23.7241464]]]},"properties":{"ward_no":42,"ward_name":"Ward 42","councillor_name":"मुनी लाल रविदास","councillor_name_en":"","reservation_category":"अनुसूचित जाति","reservation_category_en":"Scheduled Caste","gender_category":"अन्य(Other)","councillor_phone":"","lgd_ward_code":"Data pending","source_objectid":3460,"source_gisglobalid":"mQmm6sRa-5Bl5-PaK5-acoQ-mBloQQsdKRnB"}},{"type":"Feature","geometry":{"type":"Polygon","coordinates":[[[86.4178075,23.7241464],[86.4111342,23.7284557],[86.4062855,23.7317195],[86.4065707,23.7328291],[86.4064994,23.735179],[86.4060003,23.7367455],[86.4072838,23.7381162],[86.4107777,23.7394216],[86.4127742,23.7407923],[86.4143428,23.7402049],[86.416268,23.7400751],[86.4190982,23.7370859],[86.4217106,23.7355912],[86.4212752,23.7351926],[86.4188805,23.7341961],[86.4174654,23.7326018],[86.4178075,23.7241464]]]},"properties":{"ward_no":43,"ward_name":"Ward 43","councillor_name":"शाहजहाँ खातून","councillor_name_en":"","reservation_category":"अत्यंत पिछड़ा वर्ग-I","reservation_category_en":"Extremely Backward Class-I","gender_category":"महिला(Woman)","councillor_phone":"","lgd_ward_code":"Data pending","source_objectid":3499,"source_gisglobalid":"oalnPnRQ-nmmo-Pc6n-Q4c5-6d6dndlccBQm"}},{"type":"Feature","geometry":{"type":"Polygon","coordinates":[[[86.3963743,23.7419019],[86.3984421,23.7435989],[86.4015081,23.7469275],[86.4055725,23.7508435],[86.4080681,23.7471886],[86.409922,23.7443168],[86.4127742,23.7407923],[86.4107777,23.7394216],[86.4072838,23.7381162],[86.4060003,23.7367455],[86.4022925,23.7382468],[86.3970873,23.740466],[86.3963743,23.7419019]]]},"properties":{"ward_no":44,"ward_name":"Ward 44","councillor_name":"हुलासो देवी","councillor_name_en":"","reservation_category":"पिछड़ा वर्ग-II","reservation_category_en":"Backward Class-II","gender_category":"महिला(Woman)","councillor_phone":"","lgd_ward_code":"Data pending","source_objectid":3493,"source_gisglobalid":"noooonln-s5RQ-Pndd-Qnnl-c44RsaBn6KlQ"}},{"type":"Feature","geometry":{"type":"Polygon","coordinates":[[[86.4205463,23.7525404],[86.419548,23.749995],[86.4179793,23.7471233],[86.4169114,23.7455598],[86.4186628,23.7447582],[86.4205133,23.7433633],[86.4169211,23.7409719],[86.416268,23.7400751],[86.4143428,23.7402049],[86.4127742,23.7407923],[86.409922,23.7443168],[86.4080681,23.7471886],[86.4055725,23.7508435],[86.4079968,23.7531277],[86.4124176,23.7525404],[86.4133459,23.7520809],[86.4188805,23.7543231],[86.4204835,23.7549576],[86.4205463,23.7525404]]]},"properties":{"ward_no":45,"ward_name":"Ward 45","councillor_name":"मेघा देवी","councillor_name_en":"","reservation_category":"अत्यंत पिछड़ा वर्ग-I","reservation_category_en":"Extremely Backward Class-I","gender_category":"अन्य(Other)","councillor_phone":"","lgd_ward_code":"Data pending","source_objectid":3492,"source_gisglobalid":"BnlaBRl6-6Bsm-Pn4B-a6an-6Ban6o4BKB6R"}},{"type":"Feature","geometry":{"type":"Polygon","coordinates":[[[86.4393434,23.7513827],[86.440102,23.7504569],[86.4398585,23.7498137],[86.4397718,23.7490691],[86.440749,23.7481766],[86.4413051,23.7476687],[86.4421183,23.7465965],[86.442664,23.7450272],[86.4428514,23.7432085],[86.4433943,23.7423007],[86.4438449,23.7419715],[86.4446542,23.741809],[86.445913,23.7415655],[86.4463681,23.7401612],[86.4473675,23.7375183],[86.4481882,23.7346267],[86.4494597,23.7313232],[86.4496418,23.730745],[86.4504958,23.7302578],[86.4511432,23.7298885],[86.4509197,23.7296036],[86.4421514,23.733025],[86.4316697,23.7375288],[86.4266784,23.7403354],[86.4205133,23.7433633],[86.4186628,23.7447582],[86.4169114,23.7455598],[86.4179793,23.7471233],[86.419548,23.749995],[86.4205463,23.7525404],[86.4204835,23.7549576],[86.422908,23.7559172],[86.4270444,23.757312],[86.4298622,23.7582399],[86.4310856,23.7553607],[86.4356295,23.7532812],[86.4393434,23.7513827]]]},"properties":{"ward_no":46,"ward_name":"Ward 46","councillor_name":"रानी देवी","councillor_name_en":"","reservation_category":"अनुसूचित जाति","reservation_category_en":"Scheduled Caste","gender_category":"महिला(Woman)","councillor_phone":"","lgd_ward_code":"Data pending","source_objectid":3500,"source_gisglobalid":"slndmddP-lcnc-Pl6s-aoRn-cRo54od4nld6"}},{"type":"Feature","geometry":{"type":"Polygon","coordinates":[[[86.4421514,23.733025],[86.4509197,23.7296036],[86.4511432,23.7298885],[86.4532437,23.7286902],[86.4533428,23.7264577],[86.453133,23.7242907],[86.4529983,23.7229003],[86.4527682,23.7200842],[86.4513998,23.7185115],[86.4514081,23.7165282],[86.4448445,23.716272],[86.4431496,23.7159874],[86.4405827,23.7162485],[86.4354488,23.7168361],[86.431028,23.71775],[86.4291741,23.7186639],[86.4238877,23.719647],[86.4223638,23.7200456],[86.4208398,23.7202449],[86.4185539,23.7204442],[86.4179008,23.7218394],[86.4178075,23.7241464],[86.4174654,23.7326018],[86.4188805,23.7341961],[86.4212752,23.7351926],[86.4217106,23.7355912],[86.4190982,23.7370859],[86.416268,23.7400751],[86.4169211,23.7409719],[86.4205133,23.7433633],[86.4266784,23.7403354],[86.4316697,23.7375288],[86.4421514,23.733025]]]},"properties":{"ward_no":47,"ward_name":"Ward 47","councillor_name":"तारा मुन्नी देवी","councillor_name_en":"","reservation_category":"अनारक्षित","reservation_category_en":"Unreserved/General","gender_category":"महिला(Woman)","councillor_phone":"","lgd_ward_code":"Data pending","source_objectid":3501,"source_gisglobalid":"aacKoQso-B4nB-Pn6Q-saBm-4PmR5Q4anna6"}},{"type":"Feature","geometry":{"type":"Polygon","coordinates":[[[86.4431496,23.7159874],[86.4448445,23.716272],[86.4514081,23.7165282],[86.4512631,23.7149604],[86.4511487,23.7141275],[86.4509732,23.7139212],[86.449808,23.7125514],[86.4495441,23.7112272],[86.4496784,23.7107235],[86.4501829,23.7088312],[86.4509974,23.7073455],[86.4510897,23.7067669],[86.4508261,23.70536],[86.450441,23.7041787],[86.4502781,23.7036788],[86.4502054,23.7034557],[86.4500678,23.7026938],[86.4474245,23.7024686],[86.4457879,23.7018856],[86.4445757,23.7011675],[86.4425079,23.6997964],[86.4410818,23.6996658],[86.4395131,23.6999922],[86.4378731,23.7000575],[86.437374,23.6979682],[86.4359479,23.6964665],[86.4343079,23.6963359],[86.433381,23.6969888],[86.4311706,23.698817],[86.4273202,23.700841],[86.4242143,23.7022058],[86.4246497,23.7039002],[86.4241054,23.7058935],[86.4234523,23.7064915],[86.4225815,23.7058935],[86.4208398,23.7050962],[86.4183362,23.7053952],[86.4141998,23.7069899],[86.4128936,23.7085845],[86.412567,23.7115745],[86.4121316,23.7147637],[86.4121316,23.7154613],[86.4132201,23.7153616],[86.4182274,23.7118735],[86.4212752,23.7108768],[86.4226903,23.7108768],[86.4230169,23.7113752],[86.4230169,23.7126708],[86.4238877,23.719647],[86.4291741,23.7186639],[86.431028,23.71775],[86.4354488,23.7168361],[86.4405827,23.7162485],[86.4431496,23.7159874]]]},"properties":{"ward_no":48,"ward_name":"Ward 48","councillor_name":"मो0 अलीम अंसारी","councillor_name_en":"","reservation_category":"अत्यंत पिछड़ा वर्ग-I","reservation_category_en":"Extremely Backward Class-I","gender_category":"अन्य(Other)","councillor_phone":"","lgd_ward_code":"Data pending","source_objectid":3502,"source_gisglobalid":"ddBBacdK-a6Kl-P6nc-and5-cK4ssRmsPQoR"}},{"type":"Feature","geometry":{"type":"Polygon","coordinates":[[[86.4455941,23.6926612],[86.4451182,23.6922771],[86.4445381,23.6920074],[86.4437711,23.6917178],[86.4425683,23.6914076],[86.4415319,23.6910215],[86.4407865,23.69056],[86.4396483,23.6897146],[86.4388616,23.6891956],[86.438684,23.689132],[86.4386841,23.6891179],[86.4386865,23.6885591],[86.4393771,23.6875504],[86.4415059,23.687242],[86.4426742,23.686867],[86.4436371,23.6863649],[86.4444233,23.6863677],[86.4452156,23.6863705],[86.4458595,23.6857821],[86.4463179,23.6853632],[86.4465805,23.6842943],[86.4465972,23.6842266],[86.446258,23.6832773],[86.4455744,23.6826429],[86.4453704,23.6821997],[86.4453731,23.6815677],[86.445311,23.6813794],[86.4451021,23.6807451],[86.4448476,23.6803905],[86.4448292,23.6803649],[86.4448324,23.6796065],[86.4455202,23.6792297],[86.4458259,23.6791151],[86.4459054,23.6790853],[86.4466887,23.6787915],[86.4471712,23.6782876],[86.4476566,23.6770885],[86.4478686,23.6756356],[86.4479417,23.6745614],[86.4481537,23.6731085],[86.4485002,23.6720388],[86.4485013,23.6720353],[86.4491931,23.6707105],[86.4496252,23.669835],[86.4496618,23.6697609],[86.4498159,23.6694486],[86.4499251,23.6692835],[86.449326,23.6694716],[86.4465009,23.6689756],[86.4440053,23.6698899],[86.4400123,23.6706736],[86.4385862,23.6716532],[86.4377305,23.6724368],[86.4360192,23.6751142],[86.4385149,23.6775304],[86.4388001,23.6792936],[86.4377305,23.6799466],[86.4337375,23.6812526],[86.427748,23.682885],[86.4271776,23.6839298],[86.4273915,23.6865417],[86.4281758,23.6892842],[86.4287462,23.6914389],[86.4281758,23.6930713],[86.427748,23.6932672],[86.425181,23.694116],[86.4223638,23.6959264],[86.422908,23.6985179],[86.4242143,23.7022058],[86.4273202,23.700841],[86.4311706,23.698817],[86.433381,23.6969888],[86.4343079,23.6963359],[86.4359479,23.6964665],[86.437374,23.6979682],[86.4378731,23.7000575],[86.4395131,23.6999922],[86.4410818,23.6996658],[86.4425079,23.6997964],[86.4445757,23.7011675],[86.4457879,23.7018856],[86.4474245,23.7024686],[86.4500678,23.7026938],[86.4495032,23.6995662],[86.4494547,23.69772],[86.4476417,23.6969972],[86.447643,23.6958196],[86.4471926,23.6952611],[86.4471819,23.6952287],[86.4464391,23.6941363],[86.4457057,23.6928559],[86.4455941,23.6926612]]]},"properties":{"ward_no":49,"ward_name":"Ward 49","councillor_name":"बबीता गोराई","councillor_name_en":"","reservation_category":"अनारक्षित","reservation_category_en":"Unreserved/General","gender_category":"महिला(Woman)","councillor_phone":"","lgd_ward_code":"Data pending","source_objectid":3505,"source_gisglobalid":"l6cd4Q4o-44K6-Po4P-RQcs-aBQlQQ6KRmnK"}},{"type":"Feature","geometry":{"type":"Polygon","coordinates":[[[86.4129142,23.6678718],[86.4118237,23.6685409],[86.4097536,23.6696473],[86.4080761,23.6701827],[86.4063629,23.6707181],[86.40423,23.6711726],[86.4018862,23.6711369],[86.3999305,23.6709459],[86.3999893,23.6713232],[86.3999401,23.6749929],[86.3995047,23.6793792],[86.3995047,23.683267],[86.3999401,23.6857591],[86.4008109,23.6879521],[86.4024437,23.6887495],[86.405165,23.6888492],[86.4078596,23.6887656],[86.4115873,23.6886499],[86.4139821,23.6896467],[86.4159414,23.6896467],[86.4161592,23.6917399],[86.4174654,23.6943316],[86.4186628,23.695129],[86.4223638,23.6959264],[86.425181,23.694116],[86.427748,23.6932672],[86.4281758,23.6930713],[86.4287462,23.6914389],[86.4281758,23.6892842],[86.4273915,23.6865417],[86.4271776,23.6839298],[86.427748,23.682885],[86.4337375,23.6812526],[86.4377305,23.6799466],[86.4388001,23.6792936],[86.4385149,23.6775304],[86.4360192,23.6751142],[86.4323114,23.6726327],[86.4296732,23.6712613],[86.4282471,23.6712613],[86.4260367,23.6731552],[86.4236837,23.6741347],[86.4202611,23.6742],[86.4164107,23.6726327],[86.4149133,23.6701511],[86.4147707,23.6693675],[86.4139592,23.6688621],[86.4129142,23.6678718]]]},"properties":{"ward_no":50,"ward_name":"Ward 50","councillor_name":"रीना महतो","councillor_name_en":"","reservation_category":"अनारक्षित","reservation_category_en":"Unreserved/General","gender_category":"महिला(Woman)","councillor_phone":"","lgd_ward_code":"Data pending","source_objectid":3503,"source_gisglobalid":"omlRs6mP-doma-PdBs-RBKo-5n5BlsRnRdcK"}},{"type":"Feature","geometry":{"type":"Polygon","coordinates":[[[86.427281,23.6552314],[86.4245729,23.6563997],[86.4235664,23.6573336],[86.4215319,23.6594751],[86.419319,23.6619022],[86.4170348,23.6645791],[86.4144649,23.666792],[86.4129142,23.6678718],[86.4139592,23.6688621],[86.4147707,23.6693675],[86.4149133,23.6701511],[86.4164107,23.6726327],[86.4202611,23.6742],[86.4236837,23.6741347],[86.4260367,23.6731552],[86.4282471,23.6712613],[86.4296732,23.6712613],[86.4323114,23.6726327],[86.4360192,23.6751142],[86.4377305,23.6724368],[86.4385862,23.6716532],[86.4400123,23.6706736],[86.4440053,23.6698899],[86.4465009,23.6689756],[86.4440766,23.6669511],[86.4382297,23.6629021],[86.4373027,23.6619877],[86.435734,23.6625755],[86.4323114,23.6612693],[86.4279597,23.6574125],[86.427281,23.6552314]]]},"properties":{"ward_no":51,"ward_name":"Ward 51","councillor_name":"बिरेन्द्र कुमार","councillor_name_en":"","reservation_category":"अनारक्षित","reservation_category_en":"Unreserved/General","gender_category":"अन्य(Other)","councillor_phone":"","lgd_ward_code":"Data pending","source_objectid":3504,"source_gisglobalid":"PPcKndso-KKma-PsdQ-sKmc-nd5PnBBl45dc"}},{"type":"Feature","geometry":{"type":"Polygon","coordinates":[[[86.4571678,23.6470476],[86.4555268,23.6477991],[86.4524602,23.6487378],[86.4496405,23.6495587],[86.4467495,23.650808],[86.444144,23.6517716],[86.4406818,23.6524498],[86.437184,23.6531279],[86.4357088,23.6534135],[86.4331389,23.653818],[86.4308071,23.6540083],[86.4292842,23.6542939],[86.427281,23.6552314],[86.4279597,23.6574125],[86.4323114,23.6612693],[86.435734,23.6625755],[86.4373027,23.6619877],[86.4382297,23.6629021],[86.4440766,23.6669511],[86.4465009,23.6689756],[86.449326,23.6694716],[86.4514922,23.664796],[86.4532748,23.6589182],[86.454273,23.6561751],[86.4564122,23.6529094],[86.457553,23.6510806],[86.4573792,23.6480189],[86.4571678,23.6470476]]]},"properties":{"ward_no":52,"ward_name":"Ward 52","councillor_name":"लक्ष्मी कुमारी","councillor_name_en":"","reservation_category":"अनारक्षित","reservation_category_en":"Unreserved/General","gender_category":"महिला(Woman)","councillor_phone":"","lgd_ward_code":"Data pending","source_objectid":3506,"source_gisglobalid":"mdoPsd4l-asnm-P4P6-s6am-BRRK66QRRQKo"}},{"type":"Feature","geometry":{"type":"Polygon","coordinates":[[[86.4793778,23.6394839],[86.4755833,23.6387619],[86.472609,23.6385954],[86.4703247,23.638643],[86.4688018,23.6388571],[86.4676835,23.6391664],[86.4666127,23.6399755],[86.4651613,23.6410938],[86.4640191,23.6422359],[86.4623059,23.643854],[86.4608782,23.6450675],[86.4597123,23.6456862],[86.4580705,23.6465904],[86.4571678,23.6470476],[86.4573792,23.6480189],[86.457553,23.6510806],[86.4564122,23.6529094],[86.454273,23.6561751],[86.4532748,23.6589182],[86.4514922,23.664796],[86.449326,23.6694716],[86.4499251,23.6692835],[86.4500842,23.6689592],[86.4502308,23.6686917],[86.4516742,23.668128],[86.4538723,23.6675669],[86.4551101,23.6669392],[86.4555304,23.6668095],[86.4562506,23.6665873],[86.4566319,23.6664696],[86.4567888,23.6664702],[86.4572657,23.6665865],[86.4576413,23.6669874],[86.4589541,23.6666086],[86.4590508,23.6665329],[86.4592176,23.6664022],[86.4599677,23.6656974],[86.4600306,23.6656371],[86.4606738,23.6655682],[86.4609187,23.6657283],[86.4615476,23.6661393],[86.4619791,23.6664214],[86.4629125,23.6665967],[86.464035,23.6661991],[86.4640677,23.6658943],[86.4642029,23.6659933],[86.464263,23.6660373],[86.4645937,23.6663826],[86.4647791,23.6667274],[86.4649016,23.6672249],[86.4649685,23.6676165],[86.465003,23.6678179],[86.4651243,23.6686022],[86.4656362,23.6703438],[86.4657939,23.6706279],[86.4659659,23.6709376],[86.4661506,23.6714544],[86.4663758,23.6722391],[86.4665016,23.67282],[86.4666203,23.6733679],[86.4667422,23.6740184],[86.4668426,23.6748408],[86.4670473,23.675568],[86.467336,23.6760279],[86.4677481,23.676794],[86.4680732,23.6785349],[86.4681964,23.6788604],[86.4683198,23.6791476],[86.468589,23.6793206],[86.4692113,23.6794374],[86.4697089,23.6795729],[86.4698945,23.6798795],[86.4700381,23.6803197],[86.4700364,23.6807212],[86.4711925,23.6806166],[86.4726186,23.6814873],[86.474666,23.6813832],[86.4772329,23.6794895],[86.4799425,23.6762244],[86.4844346,23.6733511],[86.4868589,23.6721103],[86.4849337,23.6698246],[86.4821529,23.6679307],[86.4797998,23.6645348],[86.4765912,23.6601591],[86.4755216,23.6581344],[86.4740955,23.6552607],[86.473026,23.6525175],[86.4730973,23.6479455],[86.4761633,23.6433079],[86.4788101,23.6403242],[86.4793778,23.6394839]]]},"properties":{"ward_no":53,"ward_name":"Ward 53","councillor_name":"गणेश चन्द्र महतो","councillor_name_en":"","reservation_category":"अनारक्षित","reservation_category_en":"Unreserved/General","gender_category":"अन्य(Other)","councillor_phone":"","lgd_ward_code":"Data pending","source_objectid":3508,"source_gisglobalid":"Rma5lKcl-Ponm-PQKQ-RR4n-RnnRl5clnc4s"}},{"type":"Feature","geometry":{"type":"Polygon","coordinates":[[[86.5365863,23.6325762],[86.5349494,23.6317873],[86.5290245,23.630193],[86.5270495,23.6299075],[86.5245273,23.630312],[86.5200301,23.6309307],[86.5164455,23.6313637],[86.5143468,23.6317064],[86.5107205,23.6324773],[86.5058807,23.633648],[86.5038105,23.6342905],[86.500841,23.6352898],[86.4981141,23.6364748],[86.4970862,23.6368745],[86.4952588,23.637103],[86.493003,23.6376169],[86.4906331,23.6378311],[86.4881489,23.6376169],[86.4873923,23.6383165],[86.485842,23.6391995],[86.4842002,23.6396635],[86.480512,23.6395802],[86.4793778,23.6394839],[86.4788101,23.6403242],[86.4761633,23.6433079],[86.4730973,23.6479455],[86.473026,23.6525175],[86.4740955,23.6552607],[86.4755216,23.6581344],[86.4765912,23.6601591],[86.4797998,23.6645348],[86.4821529,23.6679307],[86.4849337,23.6698246],[86.4868589,23.6721103],[86.4890694,23.6708695],[86.4935615,23.6696287],[86.4979823,23.669041],[86.5014762,23.6687144],[86.5034014,23.6682573],[86.5041825,23.6685138],[86.5045648,23.6683988],[86.5050386,23.6680989],[86.5053763,23.6678852],[86.5065625,23.667086],[86.5066876,23.6669143],[86.5067527,23.6656894],[86.5068217,23.664391],[86.506278,23.6599155],[86.5064599,23.6596695],[86.5090955,23.656105],[86.5091745,23.6559982],[86.509282,23.6558528],[86.5093298,23.6558255],[86.5095986,23.6556719],[86.5102804,23.6552824],[86.5107163,23.6552837],[86.5107239,23.6552871],[86.5111268,23.6554626],[86.5127056,23.6561504],[86.5141427,23.6547783],[86.5160706,23.6534735],[86.5172638,23.6526659],[86.5183849,23.6525547],[86.520378,23.6523888],[86.5227496,23.6508475],[86.5238741,23.6498185],[86.5248722,23.6493054],[86.5269922,23.6484515],[86.5290546,23.6462782],[86.5303035,23.6452496],[86.5313038,23.6441055],[86.5331554,23.6424038],[86.5337968,23.6418145],[86.534881,23.639515],[86.5358784,23.6349219],[86.5363106,23.6336231],[86.5365863,23.6325762]]]},"properties":{"ward_no":54,"ward_name":"Ward 54","councillor_name":"नीरज कुमार सिंह","councillor_name_en":"","reservation_category":"अनारक्षित","reservation_category_en":"Unreserved/General","gender_category":"अन्य(Other)","councillor_phone":"","lgd_ward_code":"Data pending","source_objectid":3456,"source_gisglobalid":"5nRssd6o-K5Bm-Pas6-s64K-cds4RBmons4d"}},{"type":"Feature","geometry":{"type":"Polygon","coordinates":[[[86.4715396,23.686772],[86.4715643,23.6870775],[86.4715516,23.6871742],[86.4715372,23.6872833],[86.4714955,23.6876001],[86.4713721,23.6879812],[86.471148,23.6886734],[86.4712133,23.6894952],[86.4712831,23.6910017],[86.4715917,23.691691],[86.4732067,23.6927863],[86.4736693,23.6928522],[86.4765058,23.6932563],[86.4769852,23.6935302],[86.4770944,23.6935926],[86.477167,23.6938034],[86.4772896,23.6943009],[86.4773289,23.6948555],[86.4773885,23.695544],[86.4774888,23.6964046],[86.4775484,23.6970931],[86.4775669,23.6976476],[86.4775231,23.698221],[86.4774654,23.6986338],[86.4774438,23.6987884],[86.4774163,23.6989854],[86.4772472,23.6997305],[86.4772083,23.6999694],[86.4771195,23.7005139],[86.4770954,23.701355],[86.4771776,23.7015847],[86.4773843,23.7018148],[86.4776206,23.702011],[86.4783362,23.7028409],[86.4784206,23.7028695],[86.4785721,23.7029208],[86.4797047,23.7033044],[86.4803897,23.703364],[86.4804649,23.7033461],[86.4815743,23.7030812],[86.4826977,23.7025114],[86.4844437,23.702001],[86.4854353,23.7020581],[86.486561,23.7021228],[86.4881805,23.7021282],[86.4903679,23.7002426],[86.492616,23.6987588],[86.4928552,23.6977128],[86.4929961,23.6970967],[86.4940576,23.6964119],[86.4954883,23.6948313],[86.4955588,23.6947535],[86.4974306,23.6938992],[86.4984315,23.6927553],[86.4989931,23.6924704],[86.4999905,23.6922442],[86.5008549,23.6923039],[86.5008623,23.6923044],[86.5009999,23.6922415],[86.501611,23.6919626],[86.5018385,23.6917338],[86.5020655,23.6915054],[86.5022362,23.6913337],[86.5022779,23.6910836],[86.5023833,23.6904524],[86.5023968,23.6903716],[86.5025091,23.6896996],[86.5026614,23.6893448],[86.5032074,23.6880731],[86.5033082,23.6878385],[86.5035519,23.6870266],[86.5036866,23.6865778],[86.5037497,23.68599],[86.5038,23.6855208],[86.5038158,23.6853738],[86.503821,23.6839972],[86.5033275,23.6827338],[86.5031142,23.6822444],[86.5024014,23.6806087],[86.5020917,23.6801488],[86.5035903,23.6791212],[86.5036076,23.6791002],[86.5045484,23.6779635],[86.505342,23.6770047],[86.5064703,23.6750582],[86.5067252,23.6735104],[86.5066615,23.6734035],[86.5051162,23.6708095],[86.5047993,23.6700971],[86.5043752,23.6691438],[86.5045648,23.6683988],[86.5043916,23.6684509],[86.5041825,23.6685138],[86.5034014,23.6682573],[86.5014762,23.6687144],[86.4979823,23.669041],[86.4935615,23.6696287],[86.4890694,23.6708695],[86.4868589,23.6721103],[86.4844346,23.6733511],[86.4799425,23.6762244],[86.4772329,23.6794895],[86.474666,23.6813832],[86.4726186,23.6814873],[86.4711925,23.6806166],[86.4700364,23.6807212],[86.4701378,23.6813142],[86.470344,23.6816782],[86.4706539,23.6820425],[86.4709218,23.6825214],[86.4710028,23.6830378],[86.47114,23.6841979],[86.470891,23.6843115],[86.4705459,23.6848159],[86.4708171,23.6856385],[86.4715083,23.6863868],[86.4715396,23.686772]]]},"properties":{"ward_no":55,"ward_name":"Ward 55","councillor_name":"साहेब राम हेम्ब्रम","councillor_name_en":"","reservation_category":"अनुसूचित जनजाति","reservation_category_en":"Scheduled Tribe","gender_category":"अन्य(Other)","councillor_phone":"","lgd_ward_code":"Data pending","source_objectid":3507,"source_gisglobalid":"l5adPc4s-cBlo-Pl6Q-sBoo-Rd4aPK45sd66"}}]}